[Satellite]
VERSION=1.1
NAME=GSAT0214 (PRN E05)
NICKNAME=GSAT0214 (PRN E05)
TLE1=1 41862U 16069D   18019.93245789  .00000065  00000-0  00000-0 0  9990
TLE2=2 41862  54.5774 186.3087 0000969 236.7688 123.1866  1.70473717  7306
